FENGYUN 1C DEB          
1 29906U 99025HC  26095.59215829  .00011893  00000+0  29348-2 0  9993
2 29906  98.7043 207.8108 0037024 163.2996 196.9427 14.51850026998081
FENGYUN 1C DEB          
1 29907U 99025HD  26095.14638826  .00002990  00000+0  16002-2 0  9992
2 29907  99.0980 168.5615 0080558 290.8854  98.1407 14.12281266981996
FENGYUN 1C DEB          
1 29909U 99025HF  26095.27370794  .00011364  00000+0  24698-2 0  9990
2 29909  98.6330 208.0596 0036406  30.2998 359.0294 14.57788176   590
FENGYUN 1C DEB          
1 29911U 99025HH  26095.41057270  .00001522  00000+0  74415-3 0  9998
2 29911  98.6999 141.5471 0027086 182.1172 189.5801 14.19223779990434
FENGYUN 1C DEB          
1 29912U 99025HJ  26095.27936120  .00008191  00000+0  23537-2 0  9990
2 29912  98.7338 200.7130 0041086 238.1320 177.0472 14.44605016996771
FENGYUN 1C DEB          
1 29913U 99025HK  26095.57372550  .00000619  00000+0  38642-3 0  9996
2 29913  98.7937  96.3531 0061851 311.6421 174.6660 14.07525094985666
FENGYUN 1C DEB          
1 29914U 99025HL  26095.60852894  .00000570  00000+0  39082-3 0  9990
2 29914  98.8295 125.9095 0036112 156.7334 328.2459 14.03185720983836
FENGYUN 1C DEB          
1 29916U 99025HN  26095.34534045  .00000703  00000+0  82517-3 0  9997
2 29916  99.1875 112.2596 0270137 328.2310 162.2683 13.57140883949935
FENGYUN 1C DEB          
1 29917U 99025HP  26095.57430008  .00001263  00000+0  12280-2 0  9998
2 29917  98.8705 313.6018 0223207 183.5688 211.2480 13.70749617956906
FENGYUN 1C DEB          
1 29918U 99025HQ  26095.51685795  .00004653  00000+0  16602-2 0  9996
2 29918  98.8434 185.6023 0011632 348.8340  22.4327 14.34633707994252
FENGYUN 1C DEB          
1 29919U 99025HR  26095.36773228  .00000199  00000+0  19345-3 0  9998
2 29919  98.4964 244.0801 0138076  32.8620  27.1987 13.85190616971086
FENGYUN 1C DEB          
1 29920U 99025HS  26090.51798538  .00001766  00000+0  10649-2 0  9991
2 29920  98.3868 301.7397 0125371 332.9004  26.5656 14.04026190978142
FENGYUN 1C DEB          
1 29921U 99025HT  26094.48610067  .00000904  00000+0  56326-3 0  9998
2 29921  98.7878 102.3862 0046680 111.7699  51.3690 14.06801320984619
FENGYUN 1C DEB          
1 29922U 99025HU  26095.43504662  .00000167  00000+0  14189-3 0  9990
2 29922  99.1130 157.3421 0093615  55.0652 305.9262 13.98647237980306
FENGYUN 1C DEB          
1 29923U 99025HV  26095.53406959  .00001056  00000+0  57634-3 0  9992
2 29923  98.6875 105.6602 0016828 202.8158 314.9832 14.14137534988830
FENGYUN 1C DEB          
1 29924U 99025HW  26095.52462433  .00000020  00000+0  36482-4 0  9990
2 29924  98.7308 109.9498 0025868 297.5847 216.6364 14.08926174988100
FENGYUN 1C DEB          
1 29926U 99025HY  26095.47698063  .00001892  00000+0  49692-3 0  9990
2 29926  98.2954  84.7256 0247445 320.8799 165.1454 14.33707728  2092
FENGYUN 1C DEB          
1 29927U 99025HZ  26095.62456785  .00020333  00000+0  27192-2 0  9992
2 29927  99.0702 138.7190 0017548 209.4913 281.8752 14.79420416  3273
FENGYUN 1C DEB          
1 29928U 99025JA  26095.01957684  .00000903  00000+0  73043-3 0  9998
2 29928  99.5713 127.2796 0143593 161.1525 270.3905 13.88290327970630
FENGYUN 1C DEB          
1 29929U 99025JB  26095.32864826  .00002225  00000+0  13842-2 0  9997
2 29929  98.6284  13.4595 0128362 218.9538 265.2548 14.01938837975473
FENGYUN 1C DEB          
1 29930U 99025JC  26095.44541145  .00000703  00000+0  30148-3 0  9996
2 29930  99.0321 345.3240 0164445  88.4147  83.6253 14.20974631995058
FENGYUN 1C DEB          
1 29931U 99025JD  26095.59675079  .00000069  00000+0  70469-4 0  9993
2 29931  98.8427 132.9535 0032736 134.0671 344.2486 14.03966853984103
FENGYUN 1C DEB          
1 29932U 99025JE  26095.53709539  .00000687  00000+0  36065-3 0  9996
2 29932  98.6319 107.8814 0038800 102.6723  49.0402 14.16925222991958
FENGYUN 1C DEB          
1 29933U 99025JF  26095.26019657  .00025382  00000+0  41456-2 0  9990
2 29933  98.7460 211.2504 0002915 338.5717  51.6510 14.70848739  1705
FENGYUN 1C DEB          
1 29934U 99025JG  26095.57088989  .00004720  00000+0  83174-3 0  9996
2 29934  98.8831 156.5507 0098726 261.8675  97.1317 14.64929387 14356
FENGYUN 1C DEB          
1 29935U 99025JH  26095.40856779  .00000269  00000+0  14637-3 0  9991
2 29935  98.4397 156.5526 0149536 249.3336 125.5054 14.14295728991495
FENGYUN 1C DEB          
1 29936U 99025JJ  26095.60922756  .00000726  00000+0  25044-3 0  9995
2 29936  98.6621 214.4032 0113345 210.0449 149.4202 14.35440123  5651
FENGYUN 1C DEB          
1 29937U 99025JK  26095.04302312 -.00000037  00000+0  34338-5 0  9998
2 29937  98.7938 117.5361 0033054  63.5654 322.5695 14.04386888985266
FENGYUN 1C DEB          
1 29938U 99025JL  26095.53492366  .00000150  00000+0  11431-3 0  9994
2 29938  98.8137  87.6913 0033415 351.2980 123.4185 14.07528632986574
FENGYUN 1C DEB          
1 29939U 99025JM  26095.59115726  .00000102  00000+0  77082-4 0  9995
2 29939  98.7153  96.9772 0066348 174.5152 300.1078 14.12114762990678
FENGYUN 1C DEB          
1 29940U 99025JN  26095.57269346  .00001429  00000+0  68386-3 0  9992
2 29940  98.6200 107.1527 0074849 131.0982 351.5870 14.19133287991029
FENGYUN 1C DEB          
1 29942U 99025JQ  26095.13794317  .00001942  00000+0  74763-3 0  9993
2 29942  98.6190 165.1140 0047667 303.6191  56.0448 14.30858329994903
FENGYUN 1C DEB          
1 29943U 99025JR  26095.57821280 -.00000023  00000+0  11564-4 0  9993
2 29943  98.7269 104.8703 0034529 265.7500 208.9910 14.09696886989104
FENGYUN 1C DEB          
1 29944U 99025JS  26095.59098252  .00007961  00000+0  64811-3 0  9990
2 29944  99.0173  50.2887 0158949 228.6930 130.0512 14.90452436 21480
FENGYUN 1C DEB          
1 29945U 99025JT  26095.58302309  .00000389  00000+0  26376-3 0  9992
2 29945  98.7810 120.7660 0031555  42.8039  71.7111 14.05623425985777
FENGYUN 1C DEB          
1 29946U 99025JU  26095.57303447  .00000702  00000+0  42249-3 0  9992
2 29946  98.7901  89.8308 0081223  22.6555  92.8231 14.08365597986492
FENGYUN 1C DEB          
1 29947U 99025JV  26095.57755050  .00000045  00000+0  55483-4 0  9999
2 29947  98.8218 127.7598 0040317 161.3983 350.2216 14.03151219983460
FENGYUN 1C DEB          
1 29948U 99025JW  26094.90804652  .00000410  00000+0  26696-3 0  9998
2 29948  98.8374  83.3065 0083433 276.4750 146.9410 14.06256243985673
FENGYUN 1C DEB          
1 29949U 99025JX  26095.52563081 -.00000025  00000+0  10846-4 0  9990
2 29949  98.7565 112.6391 0023788 346.4003 165.6196 14.06848357987077
FENGYUN 1C DEB          
1 29950U 99025JY  26095.62158478  .00000235  00000+0  15582-3 0  9996
2 29950  98.7256 128.4492 0031953 280.5166 195.8658 14.10389943988967
FENGYUN 1C DEB          
1 29953U 99025KB  26095.53927742  .00000655  00000+0  53221-3 0  9995
2 29953  98.9509  83.2526 0105773 316.5536 171.9488 13.90968717974445
FENGYUN 1C DEB          
1 29954U 99025KC  26095.41050146  .00002717  00000+0  94944-3 0  9996
2 29954 100.1338 158.1052 0072589 309.3237  50.1522 14.34805302998176
FENGYUN 1C DEB          
1 29955U 99025KD  26095.54502973  .00005049  00000+0  16388-2 0  9997
2 29955  99.2642 190.2720 0006123 273.8993  98.9135 14.39364377996981
FENGYUN 1C DEB          
1 29956U 99025KE  26095.32691431 -.00000064  00000+0 -13244-4 0  9996
2 29956  98.7773 125.8215 0054365  58.0578 313.9489 14.06200406986467
FENGYUN 1C DEB          
1 29957U 99025KF  26095.35586840  .00024212  00000+0  54817-2 0  9995
2 29957  98.9204 234.5916 0036911 190.5870 224.1178 14.55694010991421
FENGYUN 1C DEB          
1 29958U 99025KG  26095.51028553  .00000423  00000+0  23884-3 0  9995
2 29958  98.6640 111.5396 0054721   8.4351 351.7730 14.14597050990598
FENGYUN 1C DEB          
1 29959U 99025KH  26095.58598344  .00000204  00000+0  14929-3 0  9990
2 29959  98.7930 128.0556 0042258   9.2386 121.1698 14.06086889985402
FENGYUN 1C DEB          
1 29960U 99025KJ  26095.44219598  .00001234  00000+0  61467-3 0  9991
2 29960  98.6282  82.4645 0090858 320.1320 194.0017 14.16632426990648
FENGYUN 1C DEB          
1 29961U 99025KK  26095.58350612  .00000525  00000+0  23128-3 0  9994
2 29961  98.9371 350.3759 0074402 336.0968  23.6763 14.26327472999327
FENGYUN 1C DEB          
1 29962U 99025KL  26095.48766749  .00000455  00000+0  28157-3 0  9995
2 29962  98.7682 105.2890 0109098 261.1048 256.8408 14.07242958985977
FENGYUN 1C DEB          
1 29963U 99025KM  26095.48859077  .00001944  00000+0  76327-3 0  9999
2 29963  98.9884 348.1475 0051193 333.0656 204.8484 14.29840531997680
FENGYUN 1C DEB          
1 29964U 99025KN  26095.50188629  .00001572  00000+0  96207-3 0  9997
2 29964  98.3699 293.9533 0130251 307.7097  51.2320 14.03094307979127
FENGYUN 1C DEB          
1 29965U 99025KP  26095.57883875  .00000564  00000+0  40516-3 0  9992
2 29965  98.9712  92.2137 0146135 114.8935 356.7661 13.95845072978646
FENGYUN 1C DEB          
1 29966U 99025KQ  26095.57397594  .00000964  00000+0  42209-3 0  9996
2 29966  99.4834 316.8798 0039936  22.4011 337.8900 14.25983201996653
FENGYUN 1C DEB          
1 29967U 99025KR  26095.19997838  .00003661  00000+0  15567-2 0  9995
2 29967  98.8538 177.7092 0072693 326.3244  60.6957 14.24442109988379
FENGYUN 1C DEB          
1 29968U 99025KS  26095.51564892  .00000404  00000+0  25593-3 0  9995
2 29968  98.8159  87.4166 0090703  34.6447  78.6850 14.07343612986496
FENGYUN 1C DEB          
1 29969U 99025KT  26095.20401567  .00005830  00000+0  20613-2 0  9996
2 29969  98.7622 186.0368 0043289  77.1597 347.7292 14.34475585992881
FENGYUN 1C DEB          
1 29970U 99025KU  26095.34071457  .00001953  00000+0  55301-3 0  9999
2 29970  98.8174  32.7307 0089732 208.1778 311.1324 14.44447608  7600
FENGYUN 1C DEB          
1 29971U 99025KV  26095.57696182  .00002004  00000+0  98600-3 0  9990
2 29971  98.6651 137.8293 0022551 198.7827 324.5392 14.18597433989532
